     2.10           G: GLONASS NAV DATA                     RINEX VERSION / TYPE
teqc  2015Jun23                         20220222 01:25:42UTCPGM / RUN BY / DATE
Linux 2.4.21-27.ELsmp|Opteron|gcc -static|Linux x86_64|=+   COMMENT
  2022     1    29   -4.656612873077D-10                    CORR TO SYSTEM TIME
                                                            END OF HEADER
15 22  1 30 21 45  0.0 9.854417294264D-05-0.000000000000D+00 7.740000000000D+04
   -2.283957373047D+04 8.331747055054D-01-9.313225746155D-10 0.000000000000D+00
    9.380270996094D+03-3.052177429199D-01-2.793967723846D-09 0.000000000000D+00
    6.408772949219D+03 3.423488616943D+00-2.793967723846D-09 0.000000000000D+00
19 22  1 30 21 45  0.0-1.763682812452D-04-9.094947017729D-13 7.740000000000D+04
   -7.507755859375D+03 2.996616363525D-01-0.000000000000D+00 0.000000000000D+00
    1.943645166016D+04-2.006626129150D+00-2.793967723846D-09 3.000000000000D+00
   -1.470983544922D+04-2.803034782410D+00 9.313225746155D-10 0.000000000000D+00
20 22  1 30 21 45  0.0-6.400421261787D-05-0.000000000000D+00 7.740000000000D+04
    9.010009765625D+02 2.199516296387D-01 3.725290298462D-09 0.000000000000D+00
    2.503553906250D+04 6.878833770752D-01-9.313225746155D-10 2.000000000000D+00
    4.944255859375D+03-3.528206825256D+00 9.313225746155D-10 0.000000000000D+00
21 22  1 30 21 45  0.0-2.742018550634D-04-2.728484105319D-12 7.848000000000D+04
    8.979958984375D+03 4.989719390869D-02 5.587935447693D-09 0.000000000000D+00
    1.217205566406D+04 2.817354202271D+00 9.313225746155D-10 4.000000000000D+00
    2.053791259766D+04-1.693831443787D+00 0.000000000000D+00 0.000000000000D+00
 9 22  1 30 22 15  0.0 3.688968718052D-05 1.818989403546D-12 7.920000000000D+04
   -4.593762695312D+03-2.071158409119D+00-1.862645149231D-09 0.000000000000D+00
    1.579034277344D+04 1.686345100403D+00-2.793967723846D-09-2.000000000000D+00
   -1.951155224609D+04 1.844671249390D+00 9.313225746155D-10 0.000000000000D+00
 6 22  1 30 22 15  0.0-2.996809780598D-05-1.818989403546D-12 7.920000000000D+04
    9.155238769531D+03-2.444239616394D+00 5.587935447693D-09 0.000000000000D+00
    1.372804248047D+04-1.063047409058D+00 0.000000000000D+00-4.000000000000D+00
    1.945198095703D+04 1.897176742554D+00 0.000000000000D+00 0.000000000000D+00
15 22  1 30 22 15  0.0 9.854324162006D-05-0.000000000000D+00 7.920000000000D+04
   -2.078330224609D+04 1.413583755493D+00-0.000000000000D+00 0.000000000000D+00
    8.307899902344D+03-9.057235717773D-01-1.862645149231D-09 0.000000000000D+00
    1.224371240234D+04 3.017718315125D+00-3.725290298462D-09 0.000000000000D+00
19 22  1 30 22 15  0.0-1.763710752130D-04-9.094947017729D-13 7.920000000000D+04
   -7.272533203125D+03-6.688404083252D-02-2.793967723846D-09 0.000000000000D+00
    1.522980908203D+04-2.627679824829D+00-2.793967723846D-09 3.000000000000D+00
   -1.912121533203D+04-2.066655158997D+00 9.313225746155D-10 0.000000000000D+00
20 22  1 30 22 15  0.0-6.400514394045D-05-0.000000000000D+00 7.920000000000D+04
    1.356048339844D+03 2.428359985352D-01 1.862645149231D-09 0.000000000000D+00
    2.545109179688D+04-2.295541763306D-01-1.862645149231D-09 2.000000000000D+00
   -1.515285156250D+03-3.602591514587D+00 9.313225746155D-10 0.000000000000D+00
21 22  1 30 22 15  0.0-2.742027863860D-04-2.728484105319D-12 7.920000000000D+04
    9.421931640625D+03 4.143228530884D-01 5.587935447693D-09 0.000000000000D+00
    1.678189941406D+04 2.262727737427D+00-0.000000000000D+00 4.000000000000D+00
    1.673432031250D+04-2.504998207092D+00 9.313225746155D-10 0.000000000000D+00
 9 22  1 30 22 45  0.0 3.689341247082D-05 2.728484105319D-12 8.100000000000D+04
   -7.753974121094D+03-1.427767753601D+00-2.793967723846D-09 0.000000000000D+00
    1.875827099609D+04 1.566602706909D+00-2.793967723846D-09-2.000000000000D+00
   -1.548084716797D+04 2.604722976685D+00 0.000000000000D+00 0.000000000000D+00
19 22  1 30 22 45  0.0-1.763729378581D-04-9.094947017729D-13 8.100000000000D+04
   -7.823386718750D+03-5.573759078979D-01-4.656612873077D-09 0.000000000000D+00
    1.014115332031D+04-2.976236343384D+00-1.862645149231D-09 3.000000000000D+00
   -2.205362451172D+04-1.170409202576D+00 9.313225746155D-10 0.000000000000D+00
20 22  1 30 22 45  0.0-6.400607526302D-05-0.000000000000D+00 8.100000000000D+04
    1.623323242188D+03 1.414489746094D-02 0.000000000000D+00 0.000000000000D+00
    2.423362207031D+04-1.106421470642D+00-2.793967723846D-09 2.000000000000D+00
   -7.857933593750D+03-3.399124145508D+00 9.313225746155D-10 0.000000000000D+00
21 22  1 30 22 45  0.0-2.742083743215D-04-2.728484105319D-12 8.100000000000D+04
    1.035129443359D+04 5.795898437500D-01 4.656612873077D-09 0.000000000000D+00
    2.019273632812D+04 1.500587463379D+00-9.313225746155D-10 4.000000000000D+00
    1.163628466797D+04-3.122723579407D+00 9.313225746155D-10 0.000000000000D+00
 6 22  1 30 22 45  0.0-2.997182309628D-05-1.818989403546D-12 8.181000000000D+04
    4.292225097656D+03-2.919633865356D+00 4.656612873077D-09 0.000000000000D+00
    1.203658203125D+04-7.860212326050D-01-0.000000000000D+00-4.000000000000D+00
    2.207073632812D+04 9.935846328735D-01-9.313225746155D-10 0.000000000000D+00
10 22  1 30 22 45  0.0-7.936451584101D-05-0.000000000000D+00 8.259000000000D+04
    5.948760742188D+03-2.196664810181D+00-9.313225746155D-10 0.000000000000D+00
    9.575592773438D+03 2.230484008789D+00-9.313225746155D-10-7.000000000000D+00
   -2.289033007812D+04 3.696374893188D-01 2.793967723846D-09 0.000000000000D+00
10 22  1 30 23 15  0.0-7.936451584101D-05-0.000000000000D+00 8.280000000000D+04
    2.394858886719D+03-1.726630210876D+00-1.862645149231D-09 0.000000000000D+00
    1.374426318359D+04 2.357196807861D+00-1.862645149231D-09-7.000000000000D+00
   -2.134919824219D+04 1.331853866577D+00 1.862645149231D-09 0.000000000000D+00
 9 22  1 30 23 15  0.0 3.689806908369D-05 2.728484105319D-12 8.280000000000D+04
   -9.722240234375D+03-7.651710510254D-01-2.793967723846D-09 0.000000000000D+00
    2.126942187500D+04 1.180547714233D+00-2.793967723846D-09-2.000000000000D+00
   -1.025582177734D+04 3.163181304932D+00-0.000000000000D+00 0.000000000000D+00
20 22  1 30 23 15  0.0-6.400700658560D-05-0.000000000000D+00 8.280000000000D+04
    1.278961425781D+03-4.265441894531D-01-9.313225746155D-10 0.000000000000D+00
    2.156127636719D+04-1.828628540039D+00-2.793967723846D-09 2.000000000000D+00
   -1.359425244141D+04-2.933199882507D+00 9.313225746155D-10 0.000000000000D+00
21 22  1 30 23 15  0.0-2.742139622569D-04-2.728484105319D-12 8.280000000000D+04
    1.135750488281D+04 4.947986602783D-01 3.725290298462D-09 0.000000000000D+00
    2.212250683594D+04 6.364068984985D-01-1.862645149231D-09 4.000000000000D+00
    5.637771484375D+03-3.498986244202D+00 9.313225746155D-10 0.000000000000D+00
10 22  1 30 23 45  0.0-7.936544716358D-05-0.000000000000D+00 8.460000000000D+04
   -2.063125000000D+02-1.155712127686D+00-2.793967723846D-09 0.000000000000D+00
    1.789183984375D+04 2.202647209167D+00-1.862645149231D-09-7.000000000000D+00
   -1.815681298828D+04 2.192393302917D+00 9.313225746155D-10 0.000000000000D+00
 9 22  1 30 23 45  0.0 3.690179437399D-05 2.728484105319D-12 8.460000000000D+04
   -1.056115234375D+04-1.895256042480D-01-2.793967723846D-09 0.000000000000D+00
    2.286702392578D+04 5.604696273804D-01-2.793967723846D-09-2.000000000000D+00
   -4.240269531250D+03 3.477480888367D+00-1.862645149231D-09 0.000000000000D+00
20 22  1 30 23 45  0.0-6.400793790817D-05-0.000000000000D+00 8.460000000000D+04
    7.587890625000D+00-9.999542236328D-01-2.793967723846D-09 0.000000000000D+00
    1.779768115234D+04-2.306956291199D+00-1.862645149231D-09 2.000000000000D+00
   -1.828098242188D+04-2.240413665771D+00 9.313225746155D-10 0.000000000000D+00
21 22  1 30 23 45  0.0-2.742195501924D-04-2.728484105319D-12 8.460000000000D+04
    1.197797753906D+04 1.539306640625D-01 1.862645149231D-09 0.000000000000D+00
    2.249428613281D+04-2.104864120483D-01-2.793967723846D-09 4.000000000000D+00
   -7.971606445312D+02-3.604449272156D+00 9.313225746155D-10 0.000000000000D+00
22 22  1 30 23 45  0.0-1.615528017282D-04-1.818989403546D-12 8.574000000000D+04
    1.519327490234D+04 1.134781837463D+00 4.656612873077D-09 0.000000000000D+00
    1.429582568359D+04 1.682635307312D+00-1.862645149231D-09-3.000000000000D+00
    1.474320361328D+04-2.790170669556D+00 9.313225746155D-10 0.000000000000D+00
